[{"OBJECT_NAME":"STARLINK-30336","OBJECT_ID":"2023-129F","EPOCH":"2026-03-09T10:19:17.890752","MEAN_MOTION":15.26764582,"ECCENTRICITY":0.00027778,"INCLINATION":43.0053,"RA_OF_ASC_NODE":119.3118,"ARG_OF_PERICENTER":264.8085,"MEAN_ANOMALY":95.2449,"EPHEMERIS_TYPE":0,"CLASSIFICATION_TYPE":"U","NORAD_CAT_ID":57703,"ELEMENT_SET_NO":999,"REV_AT_EPOCH":14050,"BSTAR":-0.00094572097,"MEAN_MOTION_DOT":-0.00025562,"MEAN_MOTION_DDOT":0},{"OBJECT_NAME":"FLOCK 4G-14","OBJECT_ID":"2025-009BL","EPOCH":"2026-03-09T18:12:31.432032","MEAN_MOTION":15.27197201,"ECCENTRICITY":0.00030064,"INCLINATION":97.4064,"RA_OF_ASC_NODE":151.1836,"ARG_OF_PERICENTER":318.3639,"MEAN_ANOMALY":41.7371,"EPHEMERIS_TYPE":0,"CLASSIFICATION_TYPE":"U","NORAD_CAT_ID":62667,"ELEMENT_SET_NO":999,"REV_AT_EPOCH":6371,"BSTAR":0.00042675627,"MEAN_MOTION_DOT":0.0001131,"MEAN_MOTION_DDOT":0}]
