STARLINK-30336          
1 57703U 23129F   26068.43006818 -.00025562  00000+0 -94572-3 0  9992
2 57703  43.0053 119.3118 0002777 264.8085  95.2449 15.26764582140508
FLOCK 4G-14             
1 62667U 25009BL  26068.75869712  .00011310  00000+0  42676-3 0  9993
2 62667  97.4064 151.1836 0003006 318.3639  41.7371 15.27197201 63711
